ONEWEB-0560             
1 55145U 23004F   25051.56347244 -.00000005  00000+0 -45723-4 0  9998
2 55145  87.9051  71.2704 0002282  91.6422 268.4971 13.18686921106235
ONEWEB-0565             
1 55146U 23004G   25051.55712859 -.00000301  00000+0 -79502-3 0  9996
2 55146  87.9045  71.3375 0002223  77.3948 282.7433 13.18692198106227
ONEWEB-0567             
1 55147U 23004H   25051.55081206  .00000024  00000+0  27690-4 0  9994
2 55147  87.9048  71.2939 0002314  84.4182 275.7214 13.18683664106223
ONEWEB-0569             
1 55148U 23004J   25051.56478298 -.00000145  00000+0 -43304-3 0  9992
2 55148  87.8888  55.9425 0002871  82.8401 277.3055 13.13469208106950
ONEWEB-0570             
1 55149U 23004K   25051.61404165  .00000032  00000+0  47847-4 0  9991
2 55149  87.9046  71.2830 0001597  71.1448 288.9857 13.18687051106226
ONEWEB-0571             
1 55150U 23004L   25051.60772482  .00000065  00000+0  13301-3 0  9995
2 55150  87.9048  71.2924 0002658  70.6963 289.4456 13.18687006106231
ONEWEB-0572             
1 55151U 23004M   25051.55245433 -.00000290  00000+0 -77906-3 0  9994
2 55151  87.9040 101.8224 0001885  90.3824 269.7523 13.17648165104059
ONEWEB-0573             
1 55152U 23004N   25051.52552006  .00000024  00000+0  29271-4 0  9995
2 55152  87.9044  71.3179 0002244  67.5568 292.5802 13.18688125106210
